CELESTIS-02             
1 25160U 98007D   22285.54873476  .00000061  00000+0  84966-4 0  9994
2 25160 107.9870 142.5632 0064405 269.9427 110.6943 14.21652836279504
CELESTIS-03             
1 26034U 99070C   22285.84092340  .00031268  00000+0  13321-2 0  9990
2 26034  98.3093 303.7845 0011370  91.1088 269.1449 15.22852139238914
